start=new Date('2021-10-27T00:00:00.000Z').valueOf();
sats=[{"MEAN_ANOMALY":"112.7478","RA_OF_ASC_NODE":"273.5475","OBJECT_NAME":"STARLINK-1883","ECCENTRICITY":"0.00037770","CLASSIFICATION_TYPE":"U","EPOCH":"2021-10-26T07:31:55.833888","MEAN_ELEMENT_THEORY":"SGP4","SITE":"AFETR","TLE_LINE2":"2 46785  53.0557 273.5475 0003777 247.3112 112.7478 15.06391513 56032","ELEMENT_SET_NO":"999","APOAPSIS":"549.855","INCLINATION":"53.0557","FILE":"3184874","MEAN_MOTION_DDOT":"0.0000000000000","REV_AT_EPOCH":"5603","TLE_LINE1":"1 46785U 20074AY  21299.31384067  .00000182  00000-0  31210-4 0  9990","BSTAR":"0.00003121000000","SEMIMAJOR_AXIS":"6925.375","COUNTRY_CODE":"US","DECAY_DATE":null,"CENTER_NAME":"EARTH","OBJECT_TYPE":"PAYLOAD","MEAN_MOTION_DOT":"0.00000182","MEAN_MOTION":"15.06391513","REF_FRAME":"TEME","PERIOD":"95.593","TIME_SYSTEM":"UTC","RCS_SIZE":"LARGE","LAUNCH_DATE":"2020-10-24","ARG_OF_PERICENTER":"247.3112","NORAD_CAT_ID":"46785","OBJECT_ID":"2020-074AY","GP_ID":"188176490","EPHEMERIS_TYPE":"0","PERIAPSIS":"544.624"},{"APOAPSIS":"551.749","ELEMENT_SET_NO":"999","MEAN_MOTION_DDOT":"0.0000000000000","FILE":"3184874","INCLINATION":"53.0528","REV_AT_EPOCH":"5632","TLE_LINE1":"1 46786U 20074AZ  21299.35992576 -.00000561  00000-0 -18632-4 0  9991","SEMIMAJOR_AXIS":"6925.343","BSTAR":"-0.00001863200000","COUNTRY_CODE":"US","DECAY_DATE":null,"OBJECT_TYPE":"PAYLOAD","CENTER_NAME":"EARTH","MEAN_ANOMALY":"325.1666","RA_OF_ASC_NODE":"253.3225","OBJECT_NAME":"STARLINK-1893","SITE":"AFETR","MEAN_ELEMENT_THEORY":"SGP4","EPOCH":"2021-10-26T08:38:17.585664","CLASSIFICATION_TYPE":"U","ECCENTRICITY":"0.00065570","TLE_LINE2":"2 46786  53.0528 253.3225 0006557  34.9752 325.1666 15.06401721 56323","OBJECT_ID":"2020-074AZ","NORAD_CAT_ID":"46786","ARG_OF_PERICENTER":"34.9752","GP_ID":"188176990","PERIAPSIS":"542.667","EPHEMERIS_TYPE":"0","MEAN_MOTION_DOT":"-0.00000561","MEAN_MOTION":"15.06401721","PERIOD":"95.592","REF_FRAME":"TEME","LAUNCH_DATE":"2020-10-24","RCS_SIZE":"LARGE","TIME_SYSTEM":"UTC"},{"MEAN_MOTION_DDOT":"0.0000000000000","FILE":"3184873","INCLINATION":"53.0520","REV_AT_EPOCH":"5632","APOAPSIS":"551.442","ELEMENT_SET_NO":"999","OBJECT_TYPE":"PAYLOAD","CENTER_NAME":"EARTH","COUNTRY_CODE":"US","DECAY_DATE":null,"BSTAR":"0.00005604000000","SEMIMAJOR_AXIS":"6925.343","TLE_LINE1":"1 46787U 20074BA  21299.35254380  .00000552  00000-0  56040-4 0  9999","RA_OF_ASC_NODE":"253.3597","MEAN_ANOMALY":"3.3981","TLE_LINE2":"2 46787  53.0520 253.3597 0006115 356.6967   3.3981 15.06401933 56320","SITE":"AFETR","MEAN_ELEMENT_THEORY":"SGP4","EPOCH":"2021-10-26T08:27:39.784320","CLASSIFICATION_TYPE":"U","ECCENTRICITY":"0.00061150","OBJECT_NAME":"STARLINK-1899","GP_ID":"188176981","ARG_OF_PERICENTER":"356.6967","OBJECT_ID":"2020-074BA","NORAD_CAT_ID":"46787","PERIAPSIS":"542.973","EPHEMERIS_TYPE":"0","PERIOD":"95.592","REF_FRAME":"TEME","MEAN_MOTION":"15.06401933","MEAN_MOTION_DOT":"0.00000552","LAUNCH_DATE":"2020-10-24","RCS_SIZE":"LARGE","TIME_SYSTEM":"UTC"},{"COUNTRY_CODE":"US","DECAY_DATE":null,"CENTER_NAME":"EARTH","OBJECT_TYPE":"PAYLOAD","TLE_LINE1":"1 46788U 20074BB  21299.34518872  .00000086  00000-0  24811-4 0  9991","BSTAR":"0.00002481100000","SEMIMAJOR_AXIS":"6925.346","FILE":"3184921","MEAN_MOTION_DDOT":"0.0000000000000","INCLINATION":"53.0566","REV_AT_EPOCH":"5664","ELEMENT_SET_NO":"999","APOAPSIS":"552.475","TLE_LINE2":"2 46788  53.0566 253.3986 0007601  37.7901 322.3621 15.06400912 56645","OBJECT_NAME":"STARLINK-1929","CLASSIFICATION_TYPE":"U","EPOCH":"2021-10-26T08:17:04.305408","ECCENTRICITY":"0.00076010","MEAN_ELEMENT_THEORY":"SGP4","SITE":"AFETR","MEAN_ANOMALY":"322.3621","RA_OF_ASC_NODE":"253.3986","EPHEMERIS_TYPE":"0","PERIAPSIS":"541.947","GP_ID":"188198878","ARG_OF_PERICENTER":"37.7901","OBJECT_ID":"2020-074BB","NORAD_CAT_ID":"46788","TIME_SYSTEM":"UTC","RCS_SIZE":"LARGE","LAUNCH_DATE":"2020-10-24","REF_FRAME":"TEME","PERIOD":"95.592","MEAN_MOTION_DOT":"0.00000086","MEAN_MOTION":"15.06400912"},{"LAUNCH_DATE":"2020-10-24","RCS_SIZE":"LARGE","TIME_SYSTEM":"UTC","REF_FRAME":"TEME","PERIOD":"95.592","MEAN_MOTION_DOT":"0.00000171","MEAN_MOTION":"15.06404571","PERIAPSIS":"546.094","EPHEMERIS_TYPE":"0","GP_ID":"188200129","OBJECT_ID":"2020-074BC","ARG_OF_PERICENTER":"73.3287","NORAD_CAT_ID":"46789","TLE_LINE2":"2 46789  53.0537 283.9608 0001597  73.3287 286.7877 15.06404571 56208","OBJECT_NAME":"STARLINK-1930","SITE":"AFETR","MEAN_ELEMENT_THEORY":"SGP4","CLASSIFICATION_TYPE":"U","ECCENTRICITY":"0.00015970","EPOCH":"2021-10-26T05:16:33.585024","MEAN_ANOMALY":"286.7877","RA_OF_ASC_NODE":"283.9608","DECAY_DATE":null,"COUNTRY_CODE":"US","OBJECT_TYPE":"PAYLOAD","CENTER_NAME":"EARTH","TLE_LINE1":"1 46789U 20074BC  21299.21983316  .00000171  00000-0  30347-4 0  9993","SEMIMAJOR_AXIS":"6925.335","BSTAR":"0.00003034700000","MEAN_MOTION_DDOT":"0.0000000000000","FILE":"3184921","REV_AT_EPOCH":"5620","INCLINATION":"53.0537","APOAPSIS":"548.306","ELEMENT_SET_NO":"999"},{"RCS_SIZE":"LARGE","TIME_SYSTEM":"UTC","LAUNCH_DATE":"2020-10-24","PERIOD":"95.592","REF_FRAME":"TEME","MEAN_MOTION":"15.06402018","MEAN_MOTION_DOT":"0.00000467","EPHEMERIS_TYPE":"0","PERIAPSIS":"546.059","GP_ID":"188174058","ARG_OF_PERICENTER":"73.1756","NORAD_CAT_ID":"46790","OBJECT_ID":"2020-074BD","TLE_LINE2":"2 46790  53.0552 283.4520 0001658  73.1756 286.9414 15.06402018 55899","CLASSIFICATION_TYPE":"U","EPOCH":"2021-10-26T07:57:10.390464","ECCENTRICITY":"0.00016580","SITE":"AFETR","MEAN_ELEMENT_THEORY":"SGP4","OBJECT_NAME":"STARLINK-1931","RA_OF_ASC_NODE":"283.4520","MEAN_ANOMALY":"286.9414","CENTER_NAME":"EARTH","OBJECT_TYPE":"PAYLOAD","DECAY_DATE":null,"COUNTRY_CODE":"US","BSTAR":"0.00005025800000","SEMIMAJOR_AXIS":"6925.342","TLE_LINE1":"1 46790U 20074BD  21299.33137026  .00000467  00000-0  50258-4 0  9998","INCLINATION":"53.0552","FILE":"3184763","MEAN_MOTION_DDOT":"0.0000000000000","REV_AT_EPOCH":"5589","ELEMENT_SET_NO":"999","APOAPSIS":"548.356"},{"RA_OF_ASC_NODE":"283.4029","MEAN_ANOMALY":"291.6263","TLE_LINE2":"2 46791  53.0533 283.4029 0001482  68.4884 291.6263 15.06402758 56221","MEAN_ELEMENT_THEORY":"SGP4","SITE":"AFETR","CLASSIFICATION_TYPE":"U","ECCENTRICITY":"0.00014820","EPOCH":"2021-10-26T08:18:22.945824","OBJECT_NAME":"STARLINK-1933","FILE":"3184921","INCLINATION":"53.0533","MEAN_MOTION_DDOT":"0.0000000000000","REV_AT_EPOCH":"5622","APOAPSIS":"548.231","ELEMENT_SET_NO":"999","OBJECT_TYPE":"PAYLOAD","CENTER_NAME":"EARTH","DECAY_DATE":null,"COUNTRY_CODE":"US","BSTAR":"0.00015988000000","SEMIMAJOR_AXIS":"6925.340","TLE_LINE1":"1 46791U 20074BE  21299.34609891  .00002101  00000-0  15988-3 0  9991","REF_FRAME":"TEME","PERIOD":"95.592","MEAN_MOTION":"15.06402758","MEAN_MOTION_DOT":"0.00002101","LAUNCH_DATE":"2020-10-24","TIME_SYSTEM":"UTC","RCS_SIZE":"LARGE","GP_ID":"188198628","OBJECT_ID":"2020-074BE","NORAD_CAT_ID":"46791","ARG_OF_PERICENTER":"68.4884","PERIAPSIS":"546.179","EPHEMERIS_TYPE":"0"},{"FILE":"3184921","REV_AT_EPOCH":"5635","MEAN_MOTION_DDOT":"0.0000000000000","INCLINATION":"53.0536","ELEMENT_SET_NO":"999","APOAPSIS":"548.348","CENTER_NAME":"EARTH","OBJECT_TYPE":"PAYLOAD","COUNTRY_CODE":"US","DECAY_DATE":null,"BSTAR":"0.00018338000000","SEMIMAJOR_AXIS":"6925.335","TLE_LINE1":"1 46792U 20074BF  21299.30647410  .00002451  00000-0  18338-3 0  9997","RA_OF_ASC_NODE":"273.5759","MEAN_ANOMALY":"277.4116","TLE_LINE2":"2 46792  53.0536 273.5759 0001658  82.7061 277.4116 15.06404378 56359","EPOCH":"2021-10-26T07:21:19.362240","CLASSIFICATION_TYPE":"U","ECCENTRICITY":"0.00016580","MEAN_ELEMENT_THEORY":"SGP4","SITE":"AFETR","OBJECT_NAME":"STARLINK-1934","GP_ID":"188199378","NORAD_CAT_ID":"46792","ARG_OF_PERICENTER":"82.7061","OBJECT_ID":"2020-074BF","EPHEMERIS_TYPE":"0","PERIAPSIS":"546.052","PERIOD":"95.592","REF_FRAME":"TEME","MEAN_MOTION":"15.06404378","MEAN_MOTION_DOT":"0.00002451","RCS_SIZE":"LARGE","TIME_SYSTEM":"UTC","LAUNCH_DATE":"2020-10-24"},{"MEAN_ANOMALY":"289.2262","RA_OF_ASC_NODE":"283.4392","TLE_LINE2":"2 46793  53.0561 283.4392 0001419  70.8880 289.2262 15.06400512 56217","OBJECT_NAME":"STARLINK-1941","SITE":"AFETR","MEAN_ELEMENT_THEORY":"SGP4","ECCENTRICITY":"0.00014190","CLASSIFICATION_TYPE":"U","EPOCH":"2021-10-26T08:02:27.480192","INCLINATION":"53.0561","FILE":"3184921","MEAN_MOTION_DDOT":"0.0000000000000","REV_AT_EPOCH":"5621","APOAPSIS":"548.195","ELEMENT_SET_NO":"999","COUNTRY_CODE":"US","DECAY_DATE":null,"OBJECT_TYPE":"PAYLOAD","CENTER_NAME":"EARTH","TLE_LINE1":"1 46793U 20074BG  21299.33504028  .00002057  00000-0  15697-3 0  9995","BSTAR":"0.00015697000000","SEMIMAJOR_AXIS":"6925.347","REF_FRAME":"TEME","PERIOD":"95.592","MEAN_MOTION_DOT":"0.00002057","MEAN_MOTION":"15.06400512","LAUNCH_DATE":"2020-10-24","RCS_SIZE":"LARGE","TIME_SYSTEM":"UTC","GP_ID":"188199630","OBJECT_ID":"2020-074BG","NORAD_CAT_ID":"46793","ARG_OF_PERICENTER":"70.8880","PERIAPSIS":"546.229","EPHEMERIS_TYPE":"0"},{"MEAN_MOTION":"15.06416743","MEAN_MOTION_DOT":"0.00003607","PERIOD":"95.591","REF_FRAME":"TEME","RCS_SIZE":"LARGE","TIME_SYSTEM":"UTC","LAUNCH_DATE":"2020-10-24","OBJECT_ID":"2020-074BH","ARG_OF_PERICENTER":"72.3584","NORAD_CAT_ID":"46794","GP_ID":"188200376","EPHEMERIS_TYPE":"0","PERIAPSIS":"546.261","RA_OF_ASC_NODE":"283.4186","MEAN_ANOMALY":"287.7547","CLASSIFICATION_TYPE":"U","EPOCH":"2021-10-26T08:13:05.525184","ECCENTRICITY":"0.00013020","SITE":"AFETR","MEAN_ELEMENT_THEORY":"SGP4","OBJECT_NAME":"STARLINK-1942","TLE_LINE2":"2 46794  53.0537 283.4186 0001302  72.3584 287.7547 15.06416743 56224","ELEMENT_SET_NO":"999","APOAPSIS":"548.064","MEAN_MOTION_DDOT":"0.0000000000000","FILE":"3184921","INCLINATION":"53.0537","REV_AT_EPOCH":"5622","BSTAR":"0.00026081000000","SEMIMAJOR_AXIS":"6925.297","TLE_LINE1":"1 46794U 20074BH  21299.34242506  .00003607  00000-0  26081-3 0  9998","CENTER_NAME":"EARTH","OBJECT_TYPE":"PAYLOAD","DECAY_DATE":null,"COUNTRY_CODE":"US"}];
